STARLINK-32911
1 63096U 25037V   26090.56183788  .00020927  00000+0  17491-2 0  9997
2 63096  70.0063 299.5003 0002224 235.6557 124.4392 14.98492388 61865
